METHANESAT              
1 59101U 24043D   25352.92520134  .00002174  00000+0  19475-3 0  9994
2 59101  97.8219 118.5193 0009275 251.1915 108.8300 14.96844925 97670
GOSAT-GW (IBUKI GW)     
1 64694U 25141A   25353.25970748  .00000409  00000+0  80558-4 0  9994
2 64694  98.0433 288.6545 0001446  84.0351 276.1018 14.67563799 25450
GHGSAT-C1               
1 46278U 20061G   25353.25559510  .00020316  00000+0  25980-3 0  9994
2 46278  97.2316  68.9956 0001659  26.6021 333.5321 15.59256321295339
GHGSAT-C12              
1 64529U 25135B   25353.21573031  .00003194  00000+0  15708-3 0  9992
2 64529  97.4617 105.0135 0006508  83.8218 276.3758 15.18723723 27495
GHGSAT-C13              
1 64548U 25135W   25353.30435163  .00003070  00000+0  14783-3 0  9991
2 64548  97.4642 105.4076 0002228  59.1088 301.0365 15.19500588 27525
GHGSAT-C2               
1 47509U 21006DA  25353.08870711  .00005649  00000+0  16758-3 0  9997
2 47509  97.2439  38.4499 0007027  95.1204 265.0842 15.35192553272192
GHGSAT-C3               
1 52737U 22057F   25353.34695464  .00005453  00000+0  18216-3 0  9996
2 52737  97.6342 127.9492 0007169  47.5585 312.6260 15.31444759197985
GHGSAT-C4               
1 52746U 22057Q   25353.30069068  .00005388  00000+0  18008-3 0  9993
2 52746  97.6270 126.9142 0007127  34.4150 325.7551 15.31434783197987
GHGSAT-C5               
1 52744U 22057N   25353.25263892  .00005591  00000+0  18679-3 0  9996
2 52744  97.6429 129.2161 0008085  43.6658 316.5221 15.31422499197979
GHGSAT-C6               
1 56204U 23054AC  25353.28050693  .00011505  00000+0  22888-3 0  9994
2 56204  97.3181 255.5834 0007655 354.9278   5.1893 15.47068624150589
GHGSAT-C7               
1 56209U 23054AH  25353.27354828  .00008924  00000+0  18826-3 0  9993
2 56209  97.3139 254.7859 0007784 346.2787  13.8250 15.45423163150569
GHGSAT-C8               
1 56186U 23054J   25353.25334503  .00010664  00000+0  21222-3 0  9991
2 56186  97.3146 254.9804 0006243  21.3581 338.7928 15.47091114150565
SENTINEL-5P             
1 42969U 17064A   25352.82862873  .00000040  00000+0  40106-4 0  9997
2 42969  98.7792 291.3589 0001013  90.0300 270.0992 14.19519004423976
ENMAP                   
1 52159U 22033C   25353.25626567  .00000561  00000+0  90951-4 0  9998
2 52159  97.9801  73.0768 0001277  84.4728 275.6627 14.74954822200136
PRISMA                  
1 44072U 19015A   25353.27342950  .00000723  00000+0  94003-4 0  9994
2 44072  97.8699  65.6395 0001203  79.9879 280.1471 14.83631711365378
SENTINEL-2A             
1 40697U 15028A   25353.28462517  .00000021  00000+0  24789-4 0  9991
2 40697  98.5744  65.7248 0001042  89.2957 270.8345 14.30807320548008
SENTINEL-2B             
1 42063U 17013A   25353.27741800 -.00000476  00000+0 -16509-3 0  9996
2 42063  98.5714  65.6321 0001204  94.2751 265.8570 14.30812518458912
SENTINEL-2C             
1 60989U 24157A   25353.17263926  .00000114  00000+0  59973-4 0  9997
2 60989  98.5677  65.5625 0001220  96.2932 263.8390 14.30819997 67242
LANDSAT 8               
1 39084U 13008A   25353.24864363  .00000301  00000+0  76862-4 0  9996
2 39084  98.2065  61.2259 0001080  89.6679 270.4643 14.57108944671693
LANDSAT 9               
1 49260U 21088A   25353.21440652  .00000324  00000+0  81996-4 0  9997
2 49260  98.2087  61.2314 0001112  90.8909 269.2417 14.57104319224794
